FLOCK 3P-1              
1 41967U 17008V   17134.91422582  .00001916  00000-0  86968-4 0  9990
2 41967  97.4985 196.3106 0007268 316.3936  43.6724 15.22022829 13318
FLOCK 3P-3              
1 41968U 17008W   17134.91467067  .00003405  00000-0  15189-3 0  9999
2 41968  97.4976 196.3077 0007153 315.5257  44.5404 15.22067558 13397
FLOCK 3P-6              
1 41969U 17008X   17134.91244558  .00003026  00000-0  13522-3 0  9996
2 41969  97.4978 196.3128 0006935 315.9824  44.0860 15.22091861 13304
FLOCK 3P-7              
1 41970U 17008Y   17134.90291924  .00003405  00000-0  15118-3 0  9990
2 41970  97.4979 196.3258 0007059 319.4589  40.6121 15.22229743 13311
FLOCK 3P-5              
1 41971U 17008Z   17134.90873384  .00001473  00000-0  67342-4 0  9997
2 41971  97.4986 196.3195 0007042 318.6585  41.4118 15.22147896 13244
FLOCK 3P-12             
1 41972U 17008AA  17134.90781558  .00002445  00000-0  10964-3 0  9996
2 41972  97.4979 196.3206 0006839 318.7498  41.3220 15.22166314 13392
FLOCK 3P-9              
1 41973U 17008AB  17134.91065191  .00002485  00000-0  11155-3 0  9993
2 41973  97.4981 196.3190 0006958 316.7935  43.2754 15.22118185 13390
FLOCK 3P-10             
1 41974U 17008AC  17134.90654546  .00002331  00000-0  10453-3 0  9991
2 41974  97.4981 196.3249 0006814 318.4158  41.6559 15.22212064 13287
FLOCK 3P-11             
1 41975U 17008AD  17134.91202271  .00003273  00000-0  14629-3 0  9992
2 41975  97.4981 196.3168 0007048 317.7294  42.3398 15.22030689 13281
FLOCK 3P-60             
1 41976U 17008AE  17134.89853972  .00002047  00000-0  91868-4 0  9999
2 41976  97.4982 196.3354 0006807 320.0909  39.9826 15.22324046 12642
FLOCK 3P-58             
1 41977U 17008AF  17134.90726225  .00002333  00000-0  10486-3 0  9996
2 41977  97.4980 196.3219 0006794 318.8981  41.1742 15.22140789 13475
FLOCK 3P-57             
1 41978U 17008AG  17134.90631001  .00003707  00000-0  16443-3 0  9999
2 41978  97.4980 196.3241 0006856 317.2497  42.8205 15.22204563 13311
FLOCK 3P-75             
1 41979U 17008AH  17134.90579466  .00002936  00000-0  13085-3 0  9998
2 41979  97.5002 196.3551 0007188 320.4147  39.6563 15.22207927 13463
FLOCK 3P-70             
1 41980U 17008AJ  17134.90543171  .00003464  00000-0  15374-3 0  9994
2 41980  97.5002 196.3566 0007121 319.8904  40.1806 15.22224304 13310
FLOCK 3P-73             
1 41981U 17008AK  17134.90680672  .00003239  00000-0  14426-3 0  9990
2 41981  97.5002 196.3545 0007314 320.2382  39.8317 15.22152692 13444
FLOCK 3P-88             
1 41982U 17008AL  17134.90385524  .00003722  00000-0  16486-3 0  9994
2 41982  97.5000 196.3551 0007161 320.4486  39.6227 15.22244928 12415
FLOCK 3P-85             
1 41983U 17008AM  17134.89350754  .00002109  00000-0  94494-4 0  9994
2 41983  97.5002 196.3702 0007266 325.1701  34.9059 15.22355515 13310
FLOCK 3P-79             
1 41984U 17008AN  17134.89435826  .00002156  00000-0  96510-4 0  9992
2 41984  97.5002 196.3686 0006909 325.6566  34.4223 15.22360940 13315
FLOCK 3P-86             
1 41985U 17008AP  17134.89539581  .00002634  00000-0  11720-3 0  9996
2 41985  97.5000 196.3659 0006859 324.7710  35.3072 15.22368659 13305
FLOCK 3P-36             
1 41986U 17008AQ  17134.89890397  .00003466  00000-0  15339-3 0  9996
2 41986  97.4983 196.3357 0006372 321.3927  38.6853 15.22326765 12790
FLOCK 3P-30             
1 41987U 17008AR  17134.89126708  .00000897  00000-0  41895-4 0  9997
2 41987  97.4990 196.3467 0006486 324.3309  35.7493 15.22400156 13262
FLOCK 3P-34             
1 41988U 17008AS  17134.90102524  .00002948  00000-0  13107-3 0  9993
2 41988  97.4980 196.3305 0006462 318.7045  41.3702 15.22293445 12795
FLOCK 3P-35             
1 41989U 17008AT  17134.90211933  .00003562  00000-0  15793-3 0  9995
2 41989  97.4979 196.3289 0006555 318.2565  41.8170 15.22248694 12790
FLOCK 3P-33             
1 41990U 17008AU  17134.89771439  .00003008  00000-0  13360-3 0  9990
2 41990  97.4981 196.3358 0006281 321.2779  38.8006 15.22316024 12796
LEMUR-2-SATCHMO         
1 41991U 17008AV  17134.90227471  .00000973  00000-0  45657-4 0  9998
2 41991  97.4986 196.3301 0006786 322.9110  37.1656 15.22045868 12795
LEMUR-2-MIA-GRACE       
1 41992U 17008AW  17134.83125582  .00001395  00000-0  63809-4 0  9999
2 41992  97.4988 196.2729 0006695 323.8410  36.2373 15.22202301 12785
LEMUR-2-SMITA-SHARAD    
1 41993U 17008AX  17134.89943683  .00001231  00000-0  56812-4 0  9991
2 41993  97.4987 196.3346 0006649 323.3557  36.7223 15.22126652 12791
LEMUR-2-SPIRE-MINIONS   
1 41994U 17008AY  17134.89930492  .00001620  00000-0  73769-4 0  9998
2 41994  97.4987 196.3339 0006599 323.5022  36.5764 15.22129367 12791
LEMUR-2-RDEATON         
1 41995U 17008AZ  17134.89781886  .00001217  00000-0  56145-4 0  9991
2 41995  97.4988 196.3376 0008027 336.7667  23.3205 15.22154684 13473
LEMUR-2-NOGUECORREIG    
1 41996U 17008BA  17134.89472997  .00001425  00000-0  65040-4 0  9997
2 41996  97.4988 196.3417 0008005 337.2998  22.7883 15.22241853 12692
LEMUR-2-JOBANPUTRA      
1 41997U 17008BB  17134.82582616  .00001677  00000-0  75809-4 0  9994
2 41997  97.4988 196.2809 0007854 337.7777  22.3118 15.22338880 12771
LEMUR-2-TACHIKOMA       
1 41998U 17008BC  17134.89608749  .00001026  00000-0  47795-4 0  9999
2 41998  97.4987 196.3395 0008049 337.6826  22.4059 15.22159060 12713
BGUSAT                  
1 41999U 17008BD  17134.88881622  .00001716  00000-0  77348-4 0  9995
2 41999  97.4992 196.3525 0007897 339.7211  20.3710 15.22394489 12780
DIDO-2                  
1 42000U 17008BE  17134.89668362  .00000842  00000-0  39847-4 0  9995
2 42000  97.4986 196.3389 0008064 338.2809  21.8084 15.22114071 12797
FLOCK 3P-49             
1 42001U 17008BF  17134.88615560  .00001068  00000-0  49263-4 0  9991
2 42001  97.4988 196.3510 0007530 339.9558  20.1382 15.22423305 13317
FLOCK 3P-67             
1 42002U 17008BG  17134.89029998  .00002439  00000-0  10872-3 0  9993
2 42002  97.4981 196.3441 0007415 339.0296  21.0635 15.22369039 13477
FLOCK 3P-68             
1 42003U 17008BH  17134.82518792  .00000863  00000-0  40513-4 0  9997
2 42003  97.4985 196.2773 0007514 338.5215  21.5704 15.22319436 13102
FLOCK 3P-41             
1 42004U 17008BJ  17134.94884184  .00001460  00000-0  66194-4 0  9999
2 42004  97.4984 196.4148 0007393 341.5477  18.5490 15.22446275 13323
FLOCK 3P-45             
1 42005U 17008BK  17134.88623096  .00002452  00000-0  10926-3 0  9999
2 42005  97.4980 196.3492 0007350 340.6292  19.4663 15.22378820 13477
FLOCK 3P-48             
1 42006U 17008BL  17134.88493742  .00002245  00000-0  10024-3 0  9992
2 42006  97.4987 196.3518 0007334 341.9350  18.1624 15.22405325 13255
FLOCK 3P-43             
1 42007U 17008BM  17134.88323281  .00001203  00000-0  55095-4 0  9994
2 42007  97.4985 196.3512 0007216 341.8242  18.2735 15.22442777 13476
FLOCK 3P-42             
1 42008U 17008BN  17134.88310530  .00002003  00000-0  89728-4 0  9997
2 42008  97.4983 196.3500 0007223 341.8698  18.2280 15.22419066 13396
FLOCK 3P-61             
1 42009U 17008BP  17134.88049816  .00002835  00000-0  12570-3 0  9997
2 42009  97.4979 196.3539 0007210 344.2813  15.8198 15.22418191 13441
FLOCK 3P-40             
1 42010U 17008BQ  17134.87708304  .00000928  00000-0  43150-4 0  9992
2 42010  97.4979 196.3535 0007135 345.0888  15.0136 15.22489631 12705
FLOCK 3P-16             
1 42011U 17008BR  17134.87218363  .00001036  00000-0  47624-4 0  9995
2 42011  97.4981 196.3616 0006885 346.2275  13.8772 15.22621622 12646
FLOCK 3P-14             
1 42012U 17008BS  17134.87244511  .00000868  00000-0  40465-4 0  9998
2 42012  97.4983 196.3633 0007041 347.9987  12.1080 15.22565906 13266
FLOCK 3P-53             
1 42013U 17008BT  17134.87448959  .00001026  00000-0  47336-4 0  9992
2 42013  97.4977 196.3535 0006964 346.7070  13.3982 15.22518615 13263
FLOCK 3P-54             
1 42014U 17008BU  17134.93856285  .00000896  00000-0  41667-4 0  9990
2 42014  97.4980 196.4239 0006884 347.2899  12.8163 15.22554064 13483
PEASSS                  
1 42015U 17008BV  17134.86307026  .00001000  00000-0  45957-4 0  9991
2 42015  97.4976 196.3690 0006193 351.9335   8.1800 15.22718584 13271
AL-FARABI 1             
1 42016U 17008BW  17134.85957161  .00001278  00000-0  57674-4 0  9998
2 42016  97.4979 196.3761 0006090 353.0480   7.0670 15.22821726 13393
NAYIF-1 (EO-88)         
1 42017U 17008BX  17134.92449223  .00001279  00000-0  57710-4 0  9994
2 42017  97.4978 196.4424 0006072 353.1272   6.9880 15.22836179 13423
FLOCK 3P-23             
1 42018U 17008BY  17134.85286246  .00003196  00000-0  14291-3 0  9997
2 42018  97.4973 196.2322 0007391 315.2203  44.8435 15.22034059 12234
FLOCK 3P-76             
1 42019U 17008BZ  17134.90155194  .00002425  00000-0  10828-3 0  9997
2 42019  97.5010 196.3628 0007215 323.1080  36.9659 15.22315974 13301
FLOCK 3P-69             
1 42020U 17008CA  17134.89978030  .00001539  00000-0  69787-4 0  9993
2 42020  97.5010 196.3645 0007104 321.5387  38.5342 15.22355959 12191
FLOCK 3P-84             
1 42021U 17008CB  17134.90621386  .00002549  00000-0  11407-3 0  9992
2 42021  97.4999 196.3525 0007264 320.4475  39.6231 15.22195823 13313
FLOCK 3P-59             
1 42022U 17008CC  17134.90195720  .00001898  00000-0  85639-4 0  9996
2 42022  97.4986 196.3295 0006955 321.3480  38.7257 15.22227793 12337
FLOCK 3P-32             
1 42023U 17008CD  17134.90555311  .00002182  00000-0  98115-4 0  9993
2 42023  97.4981 196.3267 0006697 317.2776  42.7939 15.22189748 13472
FLOCK 3P-71             
1 42024U 17008CE  17134.90602959  .00002328  00000-0  10465-3 0  9998
2 42024  97.5003 196.3567 0007196 321.0264  39.0452 15.22136007 12346
FLOCK 3P-77             
1 42025U 17008CF  17134.90209304  .00002245  00000-0  10066-3 0  9991
2 42025  97.5001 196.3588 0007060 323.2194  36.8556 15.22264147 13319
